STARLINK-30269          
1 57528U 23115H   25324.44815909 -.00023736  00000+0 -17435-2 0  9999
2 57528  43.0032 238.1706 0002117 259.3566 100.7038 15.02631752125880
STARLINK-30266          
1 57529U 23115J   25325.10298367  .00000560  00000+0  56548-4 0  9995
2 57529  43.0019 234.4647 0001102 263.1977  96.8740 15.02542055125984
STARLINK-30270          
1 57530U 23115K   25324.17898019 -.00000875  00000+0 -49747-4 0  9997
2 57530  43.0039 239.5841 0001172 282.9030  77.1681 15.02518118125840
STARLINK-30268          
1 57531U 23115L   25324.45819167 -.00002605  00000+0 -17788-3 0  9998
2 57531  43.0045 238.2383 0001086 253.0795 106.9929 15.02534338125888
STARLINK-30251          
1 57532U 23115M   25324.12025087 -.00002162  00000+0 -14506-3 0  9996
2 57532  43.0057 239.9884 0001632 268.0015  92.0641 15.02522008125836
STARLINK-30254          
1 57533U 23115N   25325.10644431  .00000274  00000+0  19488-4 0  9991
2 57533  43.0009 356.3840 0000871 270.7006  89.3746 15.27577663128757
STARLINK-30264          
1 57534U 23115P   25324.80102550  .00002010  00000+0  82551-4 0  9990
2 57534  43.0013 103.8397 0001325 276.7045  83.3656 15.27582884128709
STARLINK-30166          
1 57602U 23119A   25325.01162749 -.00000133  00000+0  52530-5 0  9990
2 57602  43.0031 312.5031 0001155 268.1853  91.8857 15.02539235126678
STARLINK-30223          
1 57603U 23119B   25325.05813919  .00002729  00000+0  21696-3 0  9996
2 57603  43.0044 311.9835 0000372 191.9855 168.0979 15.02544057126730
STARLINK-30218          
1 57604U 23119C   25324.66594146 -.00002578  00000+0 -17587-3 0  9999
2 57604  43.0049 314.2082 0000980 272.9563  87.1167 15.02525706126681
STARLINK-30138          
1 57605U 23119D   25324.99498163 -.00000081  00000+0  90964-5 0  9996
2 57605  43.0065 312.3819 0001196 268.4231  91.6474 15.02538718126733
STARLINK-30255          
1 57606U 23119E   25325.03593147 -.00000066  00000+0  10205-4 0  9993
2 57606  43.0044 311.8238 0000963 275.6826  84.3906 15.02538160126742
STARLINK-30252          
1 57607U 23119F   25325.00526775  .00000907  00000+0  82239-4 0  9993
2 57607  43.0052 299.7159 0000892 272.4946  87.5794 15.02535864126880
STARLINK-30258          
1 57608U 23119G   25325.05257777  .00001822  00000+0  14990-3 0  9997
2 57608  43.0054 311.9495 0001788 280.0780  79.9861 15.02541783126741
STARLINK-30174          
1 57609U 23119H   25325.04481042  .00000115  00000+0  23610-4 0  9995
2 57609  43.0046 311.8886 0001170 274.4384  85.6325 15.02537782126741
STARLINK-30248          
1 57610U 23119J   25325.04814223 -.00000693  00000+0 -36220-4 0  9992
2 57610  43.0043 311.9169 0000656 253.6810 106.3960 15.02539620126745
