[{"OBJECT_NAME":"STARLINK-30269","OBJECT_ID":"2023-115H","EPOCH":"2025-11-20T10:45:20.945376","MEAN_MOTION":15.02631752,"ECCENTRICITY":0.00021177,"INCLINATION":43.0032,"RA_OF_ASC_NODE":238.1706,"ARG_OF_PERICENTER":259.3566,"MEAN_ANOMALY":100.7038,"EPHEMERIS_TYPE":0,"CLASSIFICATION_TYPE":"U","NORAD_CAT_ID":57528,"ELEMENT_SET_NO":999,"REV_AT_EPOCH":12588,"BSTAR":-0.0017434624,"MEAN_MOTION_DOT":-0.00023736,"MEAN_MOTION_DDOT":0},{"OBJECT_NAME":"STARLINK-30266","OBJECT_ID":"2023-115J","EPOCH":"2025-11-21T02:28:17.789088","MEAN_MOTION":15.02542055,"ECCENTRICITY":0.0001102,"INCLINATION":43.0019,"RA_OF_ASC_NODE":234.4647,"ARG_OF_PERICENTER":263.1977,"MEAN_ANOMALY":96.874,"EPHEMERIS_TYPE":0,"CLASSIFICATION_TYPE":"U","NORAD_CAT_ID":57529,"ELEMENT_SET_NO":999,"REV_AT_EPOCH":12598,"BSTAR":5.6548e-5,"MEAN_MOTION_DOT":5.6e-6,"MEAN_MOTION_DDOT":0},{"OBJECT_NAME":"STARLINK-30270","OBJECT_ID":"2023-115K","EPOCH":"2025-11-20T04:17:43.888416","MEAN_MOTION":15.02518118,"ECCENTRICITY":0.0001172,"INCLINATION":43.0039,"RA_OF_ASC_NODE":239.5841,"ARG_OF_PERICENTER":282.903,"MEAN_ANOMALY":77.1681,"EPHEMERIS_TYPE":0,"CLASSIFICATION_TYPE":"U","NORAD_CAT_ID":57530,"ELEMENT_SET_NO":999,"REV_AT_EPOCH":12584,"BSTAR":-4.9747e-5,"MEAN_MOTION_DOT":-8.75e-6,"MEAN_MOTION_DDOT":0},{"OBJECT_NAME":"STARLINK-30268","OBJECT_ID":"2023-115L","EPOCH":"2025-11-20T10:59:47.760288","MEAN_MOTION":15.02534338,"ECCENTRICITY":0.00010866,"INCLINATION":43.0045,"RA_OF_ASC_NODE":238.2383,"ARG_OF_PERICENTER":253.0795,"MEAN_ANOMALY":106.9929,"EPHEMERIS_TYPE":0,"CLASSIFICATION_TYPE":"U","NORAD_CAT_ID":57531,"ELEMENT_SET_NO":999,"REV_AT_EPOCH":12588,"BSTAR":-0.00017787849,"MEAN_MOTION_DOT":-2.605e-5,"MEAN_MOTION_DDOT":0},{"OBJECT_NAME":"STARLINK-30251","OBJECT_ID":"2023-115M","EPOCH":"2025-11-20T02:53:09.675168","MEAN_MOTION":15.02522008,"ECCENTRICITY":0.00016321,"INCLINATION":43.0057,"RA_OF_ASC_NODE":239.9884,"ARG_OF_PERICENTER":268.0015,"MEAN_ANOMALY":92.0641,"EPHEMERIS_TYPE":0,"CLASSIFICATION_TYPE":"U","NORAD_CAT_ID":57532,"ELEMENT_SET_NO":999,"REV_AT_EPOCH":12583,"BSTAR":-0.00014506392,"MEAN_MOTION_DOT":-2.162e-5,"MEAN_MOTION_DDOT":0},{"OBJECT_NAME":"STARLINK-30254","OBJECT_ID":"2023-115N","EPOCH":"2025-11-21T02:33:16.788384","MEAN_MOTION":15.27577663,"ECCENTRICITY":8.71e-5,"INCLINATION":43.0009,"RA_OF_ASC_NODE":356.384,"ARG_OF_PERICENTER":270.7006,"MEAN_ANOMALY":89.3746,"EPHEMERIS_TYPE":0,"CLASSIFICATION_TYPE":"U","NORAD_CAT_ID":57533,"ELEMENT_SET_NO":999,"REV_AT_EPOCH":12875,"BSTAR":1.9488e-5,"MEAN_MOTION_DOT":2.74e-6,"MEAN_MOTION_DDOT":0},{"OBJECT_NAME":"STARLINK-30264","OBJECT_ID":"2023-115P","EPOCH":"2025-11-20T19:13:28.603200","MEAN_MOTION":15.27582884,"ECCENTRICITY":0.0001325,"INCLINATION":43.0013,"RA_OF_ASC_NODE":103.8397,"ARG_OF_PERICENTER":276.7045,"MEAN_ANOMALY":83.3656,"EPHEMERIS_TYPE":0,"CLASSIFICATION_TYPE":"U","NORAD_CAT_ID":57534,"ELEMENT_SET_NO":999,"REV_AT_EPOCH":12870,"BSTAR":8.2551e-5,"MEAN_MOTION_DOT":2.01e-5,"MEAN_MOTION_DDOT":0},{"OBJECT_NAME":"STARLINK-30166","OBJECT_ID":"2023-119A","EPOCH":"2025-11-21T00:16:44.615136","MEAN_MOTION":15.02539235,"ECCENTRICITY":0.0001155,"INCLINATION":43.0031,"RA_OF_ASC_NODE":312.5031,"ARG_OF_PERICENTER":268.1853,"MEAN_ANOMALY":91.8857,"EPHEMERIS_TYPE":0,"CLASSIFICATION_TYPE":"U","NORAD_CAT_ID":57602,"ELEMENT_SET_NO":999,"REV_AT_EPOCH":12667,"BSTAR":5.253e-6,"MEAN_MOTION_DOT":-1.33e-6,"MEAN_MOTION_DDOT":0},{"OBJECT_NAME":"STARLINK-30223","OBJECT_ID":"2023-119B","EPOCH":"2025-11-21T01:23:43.226016","MEAN_MOTION":15.02544057,"ECCENTRICITY":3.72e-5,"INCLINATION":43.0044,"RA_OF_ASC_NODE":311.9835,"ARG_OF_PERICENTER":191.9855,"MEAN_ANOMALY":168.0979,"EPHEMERIS_TYPE":0,"CLASSIFICATION_TYPE":"U","NORAD_CAT_ID":57603,"ELEMENT_SET_NO":999,"REV_AT_EPOCH":12673,"BSTAR":0.00021696,"MEAN_MOTION_DOT":2.729e-5,"MEAN_MOTION_DDOT":0},{"OBJECT_NAME":"STARLINK-30218","OBJECT_ID":"2023-119C","EPOCH":"2025-11-20T15:58:57.342144","MEAN_MOTION":15.02525706,"ECCENTRICITY":9.807e-5,"INCLINATION":43.0049,"RA_OF_ASC_NODE":314.2082,"ARG_OF_PERICENTER":272.9563,"MEAN_ANOMALY":87.1167,"EPHEMERIS_TYPE":0,"CLASSIFICATION_TYPE":"U","NORAD_CAT_ID":57604,"ELEMENT_SET_NO":999,"REV_AT_EPOCH":12668,"BSTAR":-0.00017586619,"MEAN_MOTION_DOT":-2.578e-5,"MEAN_MOTION_DDOT":0},{"OBJECT_NAME":"STARLINK-30138","OBJECT_ID":"2023-119D","EPOCH":"2025-11-20T23:52:46.412832","MEAN_MOTION":15.02538718,"ECCENTRICITY":0.0001196,"INCLINATION":43.0065,"RA_OF_ASC_NODE":312.3819,"ARG_OF_PERICENTER":268.4231,"MEAN_ANOMALY":91.6474,"EPHEMERIS_TYPE":0,"CLASSIFICATION_TYPE":"U","NORAD_CAT_ID":57605,"ELEMENT_SET_NO":999,"REV_AT_EPOCH":12673,"BSTAR":9.0964e-6,"MEAN_MOTION_DOT":-8.1e-7,"MEAN_MOTION_DDOT":0},{"OBJECT_NAME":"STARLINK-30255","OBJECT_ID":"2023-119E","EPOCH":"2025-11-21T00:51:44.479008","MEAN_MOTION":15.0253816,"ECCENTRICITY":9.63e-5,"INCLINATION":43.0044,"RA_OF_ASC_NODE":311.8238,"ARG_OF_PERICENTER":275.6826,"MEAN_ANOMALY":84.3906,"EPHEMERIS_TYPE":0,"CLASSIFICATION_TYPE":"U","NORAD_CAT_ID":57606,"ELEMENT_SET_NO":999,"REV_AT_EPOCH":12674,"BSTAR":1.0205e-5,"MEAN_MOTION_DOT":-6.6e-7,"MEAN_MOTION_DDOT":0},{"OBJECT_NAME":"STARLINK-30252","OBJECT_ID":"2023-119F","EPOCH":"2025-11-21T00:07:35.133600","MEAN_MOTION":15.02535864,"ECCENTRICITY":8.92e-5,"INCLINATION":43.0052,"RA_OF_ASC_NODE":299.7159,"ARG_OF_PERICENTER":272.4946,"MEAN_ANOMALY":87.5794,"EPHEMERIS_TYPE":0,"CLASSIFICATION_TYPE":"U","NORAD_CAT_ID":57607,"ELEMENT_SET_NO":999,"REV_AT_EPOCH":12688,"BSTAR":8.2239e-5,"MEAN_MOTION_DOT":9.07e-6,"MEAN_MOTION_DDOT":0},{"OBJECT_NAME":"STARLINK-30258","OBJECT_ID":"2023-119G","EPOCH":"2025-11-21T01:15:42.719328","MEAN_MOTION":15.02541783,"ECCENTRICITY":0.0001788,"INCLINATION":43.0054,"RA_OF_ASC_NODE":311.9495,"ARG_OF_PERICENTER":280.078,"MEAN_ANOMALY":79.9861,"EPHEMERIS_TYPE":0,"CLASSIFICATION_TYPE":"U","NORAD_CAT_ID":57608,"ELEMENT_SET_NO":999,"REV_AT_EPOCH":12674,"BSTAR":0.0001499,"MEAN_MOTION_DOT":1.822e-5,"MEAN_MOTION_DDOT":0},{"OBJECT_NAME":"STARLINK-30174","OBJECT_ID":"2023-119H","EPOCH":"2025-11-21T01:04:31.620288","MEAN_MOTION":15.02537782,"ECCENTRICITY":0.000117,"INCLINATION":43.0046,"RA_OF_ASC_NODE":311.8886,"ARG_OF_PERICENTER":274.4384,"MEAN_ANOMALY":85.6325,"EPHEMERIS_TYPE":0,"CLASSIFICATION_TYPE":"U","NORAD_CAT_ID":57609,"ELEMENT_SET_NO":999,"REV_AT_EPOCH":12674,"BSTAR":2.361e-5,"MEAN_MOTION_DOT":1.15e-6,"MEAN_MOTION_DDOT":0},{"OBJECT_NAME":"STARLINK-30248","OBJECT_ID":"2023-119J","EPOCH":"2025-11-21T01:09:19.488672","MEAN_MOTION":15.0253962,"ECCENTRICITY":6.56e-5,"INCLINATION":43.0043,"RA_OF_ASC_NODE":311.9169,"ARG_OF_PERICENTER":253.681,"MEAN_ANOMALY":106.396,"EPHEMERIS_TYPE":0,"CLASSIFICATION_TYPE":"U","NORAD_CAT_ID":57610,"ELEMENT_SET_NO":999,"REV_AT_EPOCH":12674,"BSTAR":-3.622e-5,"MEAN_MOTION_DOT":-6.93e-6,"MEAN_MOTION_DDOT":0}]
